APRIZESAT 6             
1 37793U 11044F   17345.95245208  .00000082  00000-0  21420-4 0  9997
2 37793  98.3120 118.0976 0046116 230.0005 244.9161 14.72268659339275
